[{"OBJECT_NAME":"HAWK-11A","OBJECT_ID":"2024-247F","EPOCH":"2026-03-09T12:17:43.893312","MEAN_MOTION":15.28849427,"ECCENTRICITY":0.00054663,"INCLINATION":44.9941,"RA_OF_ASC_NODE":114.3328,"ARG_OF_PERICENTER":327.3713,"MEAN_ANOMALY":32.6832,"EPHEMERIS_TYPE":0,"CLASSIFICATION_TYPE":"U","NORAD_CAT_ID":62382,"ELEMENT_SET_NO":999,"REV_AT_EPOCH":6774,"BSTAR":0.00034106017,"MEAN_MOTION_DOT":9.457e-5,"MEAN_MOTION_DDOT":0},{"OBJECT_NAME":"STARLINK-34180","OBJECT_ID":"2025-107T","EPOCH":"2026-03-09T09:22:51.211200","MEAN_MOTION":15.27594644,"ECCENTRICITY":2.618e-5,"INCLINATION":42.9963,"RA_OF_ASC_NODE":203.3296,"ARG_OF_PERICENTER":129.6772,"MEAN_ANOMALY":230.4103,"EPHEMERIS_TYPE":0,"CLASSIFICATION_TYPE":"U","NORAD_CAT_ID":64081,"ELEMENT_SET_NO":999,"REV_AT_EPOCH":4607,"BSTAR":0.00095283039,"MEAN_MOTION_DOT":0.00026062,"MEAN_MOTION_DDOT":0}]
